YAOGAN-47               
1 66988U 25289A   26008.34390351  .00004342  00000+0  18450-3 0  9990
2 66988  97.5216  78.5282 0001111 120.2987 239.8360 15.23589946  4595
CZ-4B R/B               
1 66989U 25289B   26008.14968184  .00135204  78521-5  54471-3 0  9998
2 66989  97.5188  80.5194 0128243 262.6251  96.0424 15.74697669  4716
TJS-22                  
1 66990U 25290A   26007.31201047 -.00000004  00000+0  00000+0 0  9994
2 66990   1.9248 285.0723 0003331 348.2432  12.3387  1.00271811   419
CZ-3B R/B               
1 66991U 25290B   25349.72468800  .00057911 -20514-6  75879-3 0  9998
2 66991  28.4636 300.4666 7240884 182.7002 168.6250  2.38388611   165
2025-292A               
1 66993U 25292A   26008.27543684  .00004946  00000+0  35403-3 0  9998
2 66993  97.6494  85.5664 0015504 177.3998 182.7312 15.04785097  4382
THE ARAB SATELLITE 813  
1 66994U 25292B   26008.27441745  .00005702  00000+0  40665-3 0  9991
2 66994  97.6504  85.5711 0015308 177.7171 182.4128 15.04858784  4383
2025-292C               
1 66995U 25292C   26008.27508809  .00006307  00000+0  45023-3 0  9992
2 66995  97.6495  85.5669 0015521 175.9784 184.1570 15.04778923  4388
2025-292D               
1 66996U 25292D   26008.27401546  .00004015  00000+0  28810-3 0  9992
2 66996  97.6491  85.5666 0014663 179.5419 180.5823 15.04818306  4384
2025-292E               
1 66997U 25292E   26008.27188900  .00004794  00000+0  34167-3 0  9995
2 66997  97.6511  85.5770 0014994 180.8375 179.2829 15.04968000  4374
2025-292F               
1 66998U 25292F   26008.26829892  .00006324  00000+0  44624-3 0  9997
2 66998  97.6529  85.5890 0016152 181.5496 178.5683 15.05202454  4383
2025-292G               
1 66999U 25292G   26008.26705858  .00006266  00000+0  44154-3 0  9996
2 66999  97.6538  85.5939 0015617 183.2376 176.8752 15.05267328  4388
2025-292H               
1 67000U 25292H   26008.26640296  .00007689  00000+0  53952-3 0  9990
2 67000  97.6551  85.5995 0015473 183.3045 176.8082 15.05350005  4250
