CCSDS_OMM_VERS = 2.0
CREATION_DATE  = 
ORIGINATOR     = 

OBJECT_NAME    = YAOGAN-47
OBJECT_ID      = 2025-289A
CENTER_NAME    = EARTH
REF_FRAME      = TEME
TIME_SYSTEM    = UTC
MEAN_ELEMENT_THEORY = SGP/SGP4

EPOCH          = 2026-01-08T08:15:13.263264
MEAN_MOTION    = 15.23589946
ECCENTRICITY   = .0001111
INCLINATION    = 97.5216
RA_OF_ASC_NODE = 78.5282
ARG_OF_PERICENTER = 120.2987
MEAN_ANOMALY   = 239.8360

EPHEMERIS_TYPE = 0
CLASSIFICATION_TYPE = U
NORAD_CAT_ID   = 66988
ELEMENT_SET_NO = 999
REV_AT_EPOCH   = 459
BSTAR          = .1845E-3
MEAN_MOTION_DOT = .4342E-4
MEAN_MOTION_DDOT = 0

CCSDS_OMM_VERS = 2.0
CREATION_DATE  = 
ORIGINATOR     = 

OBJECT_NAME    = CZ-4B R/B
OBJECT_ID      = 2025-289B
CENTER_NAME    = EARTH
REF_FRAME      = TEME
TIME_SYSTEM    = UTC
MEAN_ELEMENT_THEORY = SGP/SGP4

EPOCH          = 2026-01-08T03:35:32.510976
MEAN_MOTION    = 15.74697669
ECCENTRICITY   = .01282437
INCLINATION    = 97.5188
RA_OF_ASC_NODE = 80.5194
ARG_OF_PERICENTER = 262.6251
MEAN_ANOMALY   = 96.0424

EPHEMERIS_TYPE = 0
CLASSIFICATION_TYPE = U
NORAD_CAT_ID   = 66989
ELEMENT_SET_NO = 999
REV_AT_EPOCH   = 471
BSTAR          = .54471391E-3
MEAN_MOTION_DOT = .135204E-2
MEAN_MOTION_DDOT = .7852072E-5

CCSDS_OMM_VERS = 2.0
CREATION_DATE  = 
ORIGINATOR     = 

OBJECT_NAME    = TJS-22
OBJECT_ID      = 2025-290A
CENTER_NAME    = EARTH
REF_FRAME      = TEME
TIME_SYSTEM    = UTC
MEAN_ELEMENT_THEORY = SGP/SGP4

EPOCH          = 2026-01-07T07:29:17.704608
MEAN_MOTION    = 1.00271811
ECCENTRICITY   = .00033311
INCLINATION    = 1.9248
RA_OF_ASC_NODE = 285.0723
ARG_OF_PERICENTER = 348.2432
MEAN_ANOMALY   = 12.3387

EPHEMERIS_TYPE = 0
CLASSIFICATION_TYPE = U
NORAD_CAT_ID   = 66990
ELEMENT_SET_NO = 999
REV_AT_EPOCH   = 41
BSTAR          = 0
MEAN_MOTION_DOT = -.4E-7
MEAN_MOTION_DDOT = 0

CCSDS_OMM_VERS = 2.0
CREATION_DATE  = 
ORIGINATOR     = 

OBJECT_NAME    = CZ-3B R/B
OBJECT_ID      = 2025-290B
CENTER_NAME    = EARTH
REF_FRAME      = TEME
TIME_SYSTEM    = UTC
MEAN_ELEMENT_THEORY = SGP/SGP4

EPOCH          = 2025-12-15T17:23:33.043200
MEAN_MOTION    = 2.38388611
ECCENTRICITY   = .7240884
INCLINATION    = 28.4636
RA_OF_ASC_NODE = 300.4666
ARG_OF_PERICENTER = 182.7002
MEAN_ANOMALY   = 168.6250

EPHEMERIS_TYPE = 0
CLASSIFICATION_TYPE = U
NORAD_CAT_ID   = 66991
ELEMENT_SET_NO = 999
REV_AT_EPOCH   = 16
BSTAR          = .75879E-3
MEAN_MOTION_DOT = .57911E-3
MEAN_MOTION_DDOT = -.20514E-6

CCSDS_OMM_VERS = 2.0
CREATION_DATE  = 
ORIGINATOR     = 

OBJECT_NAME    = 2025-292A
OBJECT_ID      = 2025-292A
CENTER_NAME    = EARTH
REF_FRAME      = TEME
TIME_SYSTEM    = UTC
MEAN_ELEMENT_THEORY = SGP/SGP4

EPOCH          = 2026-01-08T06:36:37.742976
MEAN_MOTION    = 15.04785097
ECCENTRICITY   = .00155041
INCLINATION    = 97.6494
RA_OF_ASC_NODE = 85.5664
ARG_OF_PERICENTER = 177.3998
MEAN_ANOMALY   = 182.7312

EPHEMERIS_TYPE = 0
CLASSIFICATION_TYPE = U
NORAD_CAT_ID   = 66993
ELEMENT_SET_NO = 999
REV_AT_EPOCH   = 438
BSTAR          = .35402756E-3
MEAN_MOTION_DOT = .4946E-4
MEAN_MOTION_DDOT = 0

CCSDS_OMM_VERS = 2.0
CREATION_DATE  = 
ORIGINATOR     = 

OBJECT_NAME    = THE ARAB SATELLITE 813
OBJECT_ID      = 2025-292B
CENTER_NAME    = EARTH
REF_FRAME      = TEME
TIME_SYSTEM    = UTC
MEAN_ELEMENT_THEORY = SGP/SGP4

EPOCH          = 2026-01-08T06:35:09.667680
MEAN_MOTION    = 15.04858784
ECCENTRICITY   = .00153087
INCLINATION    = 97.6504
RA_OF_ASC_NODE = 85.5711
ARG_OF_PERICENTER = 177.7171
MEAN_ANOMALY   = 182.4128

EPHEMERIS_TYPE = 0
CLASSIFICATION_TYPE = U
NORAD_CAT_ID   = 66994
ELEMENT_SET_NO = 999
REV_AT_EPOCH   = 438
BSTAR          = .40665083E-3
MEAN_MOTION_DOT = .5702E-4
MEAN_MOTION_DDOT = 0

CCSDS_OMM_VERS = 2.0
CREATION_DATE  = 
ORIGINATOR     = 

OBJECT_NAME    = 2025-292C
OBJECT_ID      = 2025-292C
CENTER_NAME    = EARTH
REF_FRAME      = TEME
TIME_SYSTEM    = UTC
MEAN_ELEMENT_THEORY = SGP/SGP4

EPOCH          = 2026-01-08T06:36:07.610976
MEAN_MOTION    = 15.04778923
ECCENTRICITY   = .0015521
INCLINATION    = 97.6495
RA_OF_ASC_NODE = 85.5669
ARG_OF_PERICENTER = 175.9784
MEAN_ANOMALY   = 184.1570

EPHEMERIS_TYPE = 0
CLASSIFICATION_TYPE = U
NORAD_CAT_ID   = 66995
ELEMENT_SET_NO = 999
REV_AT_EPOCH   = 438
BSTAR          = .4502257E-3
MEAN_MOTION_DOT = .6307E-4
MEAN_MOTION_DDOT = 0

CCSDS_OMM_VERS = 2.0
CREATION_DATE  = 
ORIGINATOR     = 

OBJECT_NAME    = 2025-292D
OBJECT_ID      = 2025-292D
CENTER_NAME    = EARTH
REF_FRAME      = TEME
TIME_SYSTEM    = UTC
MEAN_ELEMENT_THEORY = SGP/SGP4

EPOCH          = 2026-01-08T06:34:34.935744
MEAN_MOTION    = 15.04818306
ECCENTRICITY   = .00146631
INCLINATION    = 97.6491
RA_OF_ASC_NODE = 85.5666
ARG_OF_PERICENTER = 179.5419
MEAN_ANOMALY   = 180.5823

EPHEMERIS_TYPE = 0
CLASSIFICATION_TYPE = U
NORAD_CAT_ID   = 66996
ELEMENT_SET_NO = 999
REV_AT_EPOCH   = 438
BSTAR          = .28810297E-3
MEAN_MOTION_DOT = .4015E-4
MEAN_MOTION_DDOT = 0

CCSDS_OMM_VERS = 2.0
CREATION_DATE  = 
ORIGINATOR     = 

OBJECT_NAME    = 2025-292E
OBJECT_ID      = 2025-292E
CENTER_NAME    = EARTH
REF_FRAME      = TEME
TIME_SYSTEM    = UTC
MEAN_ELEMENT_THEORY = SGP/SGP4

EPOCH          = 2026-01-08T06:31:31.209600
MEAN_MOTION    = 15.04968000
ECCENTRICITY   = .0014994
INCLINATION    = 97.6511
RA_OF_ASC_NODE = 85.5770
ARG_OF_PERICENTER = 180.8375
MEAN_ANOMALY   = 179.2829

EPHEMERIS_TYPE = 0
CLASSIFICATION_TYPE = U
NORAD_CAT_ID   = 66997
ELEMENT_SET_NO = 999
REV_AT_EPOCH   = 437
BSTAR          = .34167107E-3
MEAN_MOTION_DOT = .4794E-4
MEAN_MOTION_DDOT = 0

CCSDS_OMM_VERS = 2.0
CREATION_DATE  = 
ORIGINATOR     = 

OBJECT_NAME    = 2025-292F
OBJECT_ID      = 2025-292F
CENTER_NAME    = EARTH
REF_FRAME      = TEME
TIME_SYSTEM    = UTC
MEAN_ELEMENT_THEORY = SGP/SGP4

EPOCH          = 2026-01-08T06:26:21.026688
MEAN_MOTION    = 15.05202454
ECCENTRICITY   = .00161527
INCLINATION    = 97.6529
RA_OF_ASC_NODE = 85.5890
ARG_OF_PERICENTER = 181.5496
MEAN_ANOMALY   = 178.5683

EPHEMERIS_TYPE = 0
CLASSIFICATION_TYPE = U
NORAD_CAT_ID   = 66998
ELEMENT_SET_NO = 999
REV_AT_EPOCH   = 438
BSTAR          = .44624364E-3
MEAN_MOTION_DOT = .6324E-4
MEAN_MOTION_DDOT = 0

CCSDS_OMM_VERS = 2.0
CREATION_DATE  = 
ORIGINATOR     = 

OBJECT_NAME    = 2025-292G
OBJECT_ID      = 2025-292G
CENTER_NAME    = EARTH
REF_FRAME      = TEME
TIME_SYSTEM    = UTC
MEAN_ELEMENT_THEORY = SGP/SGP4

EPOCH          = 2026-01-08T06:24:33.861312
MEAN_MOTION    = 15.05267328
ECCENTRICITY   = .00156173
INCLINATION    = 97.6538
RA_OF_ASC_NODE = 85.5939
ARG_OF_PERICENTER = 183.2376
MEAN_ANOMALY   = 176.8752

EPHEMERIS_TYPE = 0
CLASSIFICATION_TYPE = U
NORAD_CAT_ID   = 66999
ELEMENT_SET_NO = 999
REV_AT_EPOCH   = 438
BSTAR          = .44154299E-3
MEAN_MOTION_DOT = .6266E-4
MEAN_MOTION_DDOT = 0

CCSDS_OMM_VERS = 2.0
CREATION_DATE  = 
ORIGINATOR     = 

OBJECT_NAME    = 2025-292H
OBJECT_ID      = 2025-292H
CENTER_NAME    = EARTH
REF_FRAME      = TEME
TIME_SYSTEM    = UTC
MEAN_ELEMENT_THEORY = SGP/SGP4

EPOCH          = 2026-01-08T06:23:37.215744
MEAN_MOTION    = 15.05350005
ECCENTRICITY   = .00154737
INCLINATION    = 97.6551
RA_OF_ASC_NODE = 85.5995
ARG_OF_PERICENTER = 183.3045
MEAN_ANOMALY   = 176.8082

EPHEMERIS_TYPE = 0
CLASSIFICATION_TYPE = U
NORAD_CAT_ID   = 67000
ELEMENT_SET_NO = 999
REV_AT_EPOCH   = 425
BSTAR          = .53951921E-3
MEAN_MOTION_DOT = .7689E-4
MEAN_MOTION_DDOT = 0

